{"type":"FeatureCollection","features":[{"type":"Feature","geometry":{"type":"Polygon","coordinates":[[[-5.888922318528433,41.79780368307553],[-5.889671120083846,41.797958641005074],[-5.889963856393179,41.798019191877195],[-5.890407007640273,41.798367860629725],[-5.89074358801133,41.798614610462764],[-5.891064790103721,41.79887190892156],[-5.890190472893594,41.80126433305527],[-5.890030286332536,41.801232523730846],[-5.889231956108329,41.80106395694249],[-5.888120809886354,41.80084434436079],[-5.888121321182479,41.80084240814104],[-5.88815415561373,41.80071784215601],[-5.888157229257805,41.80070618208981],[-5.888158111872262,41.80070283268111],[-5.888169469351737,41.800659744667094],[-5.888281273050235,41.800235589328295],[-5.888342719947858,41.80000247517616],[-5.888654241779699,41.79882064352233],[-5.888888003852993,41.797933812130026],[-5.888888395287894,41.79793232769489],[-5.888889538579556,41.797927990897925],[-5.888890233439371,41.79792535395103],[-5.888891064086024,41.79792220486982],[-5.888891382598364,41.79792099536112],[-5.888891634893664,41.797920038985914],[-5.888891748887554,41.79791960731787],[-5.888898855903676,41.797892646086524],[-5.888915950796214,41.79782779194506],[-5.888922318528433,41.79780368307553]]]},"properties":{"provincia":49,"municipio":147,"agregado":0,"zona":0,"poligono":1,"parcela":462,"recinto":1,"superficie":6.1568,"pendiente_media":3.8,"coef_regadio":100,"admisibilidad":null,"incidencias":"221,75","uso_sigpac":"TA","region":7,"altitud":703}}],"crs":{"type":"EPSG","properties":{"code":"4258"}}}